[{"OBJECT_NAME":"STARLINK-3312","OBJECT_ID":"2022-001AZ","EPOCH":"2026-03-09T11:22:03.363456","MEAN_MOTION":15.08837152,"ECCENTRICITY":0.00012848,"INCLINATION":53.2172,"RA_OF_ASC_NODE":140.0908,"ARG_OF_PERICENTER":96.2045,"MEAN_ANOMALY":263.9093,"EPHEMERIS_TYPE":0,"CLASSIFICATION_TYPE":"U","NORAD_CAT_ID":50850,"ELEMENT_SET_NO":999,"REV_AT_EPOCH":23133,"BSTAR":-2.9322036e-5,"MEAN_MOTION_DOT":-7.54e-6,"MEAN_MOTION_DDOT":0},{"OBJECT_NAME":"DISKSAT D","OBJECT_ID":"2025-305C","EPOCH":"2026-03-09T13:15:42.202656","MEAN_MOTION":15.07416577,"ECCENTRICITY":0.00037124,"INCLINATION":45.0023,"RA_OF_ASC_NODE":251.6339,"ARG_OF_PERICENTER":319.2749,"MEAN_ANOMALY":40.7848,"EPHEMERIS_TYPE":0,"CLASSIFICATION_TYPE":"U","NORAD_CAT_ID":67221,"ELEMENT_SET_NO":999,"REV_AT_EPOCH":1227,"BSTAR":0.00076840651,"MEAN_MOTION_DOT":0.00011599,"MEAN_MOTION_DDOT":0}]
